latitude	longitude	store	name	city	address	phone
39.351954	-84.461203	Skyline Chili 	Beckett Ridge	Beckett Ridge	8386 Princeton-Glendale Road, West Chester, OH	(513) 874-4211
39.269972	-84.37157	Skyline Chili 	Blue Ash	Blue Ash	5005 Cornell Road, Cincinnati, OH	(513) 489-8488
39.158767	-84.632024	Skyline Chili 	Bridgetown	Bridgetown	5560 Bridgetown Road, Cincinnati, OH	(513) 574-4777
39.289937	-84.466338	Skyline Chili 	Tri County	Tri County	85 East Kemper Road, Cincinnati, OH	(513) 671-4444
39.076643	-84.311171	Skyline Chili 	Cherry Grove	Cherry Grove	440 Ohio Pike, Cincinnati, OH	(513) 528-6611
39.158351	-84.750105	Skyline Chili 	Cleves	Cleves	250 S. Miami Ave., Cleves, OH	(513) 467-9333
39.143957	-84.51907	Skyline Chili 	Clifton	Clifton	290 Ludlow Avenue, Cincinnati, OH	(513) 221-2142
39.09508	-84.6143	Skyline Chili 	Delhi	Delhi	5137 Delhi Pike, Cincinnati, OH	(513) 451-7000
39.192136	-84.658417	Skyline Chili 	Dent	Dent	6485 Harrison Ave., Dent, OH	(513) 598-9798
39.101292	-84.265194	Skyline Chili 	Eastgate	Eastgate	856 Eastgate South Drive, Cincinnati, OH	(513) 752-4040
39.37518	-84.383268	Skyline Chili 	Lakota	Lakota	7132 Cincinnati Dayton Rd., Suite 100, West Chester, OH	(513) 777-7555
39.303222	-84.317036	Skyline Chili 	Escort Drive/Fields-Ertel	Escort Drive/Fields-Ertel	5214 Bardes Road, Mason, OH	(513) 398-4986
39.142676	-84.391075	Skyline Chili 	Fairfax	Fairfax	5816 Wooster Pike, Cincinnati, OH	(513) 271-0611
39.347043	-84.539884	Skyline Chili 	Fairfield	Fairfield	1190 Hicks Blvd., Fairfield, OH	(513) 829-8777
39.187845	-83.927203	Skyline Chili 	Fayetteville	Fayetteville	41 N. Dunham St., Fayetteville, OH	(513) 875-4750
39.232586	-84.510037	Skyline Chili 	Finneytown	Finneytown	9115 Winton Road, Cincinnati, OH	(513) 931-4008
39.29369	-84.523362	Skyline Chili 	Forest Park	Forest Park	1180 Kemper Meadow Drive, Cincinnati, OH	(513) 851-3929
39.074644	-84.35905	Skyline Chili 	Anderson/Beechmont Ave	Anderson/Beechmont Ave	7189 Beechmont Avenue, Cincinnati, OH	(513) 231-2064
39.101258	-84.507998	Skyline Chili 	Fourth & Sycamore	Fourth & Sycamore	254 East Fourth Street, Cincinnati, OH	(513) 241-4848
39.130959	-84.607691	Skyline Chili 	Glenway	Glenway	5476 Glenway Avenue, Cincinnati, OH	(513) 451-3355
39.235178	-84.159594	Skyline Chili 	Goshen	Goshen	1877 State Route 28, Goshen, OH	(513) 722-0397
39.228746	-84.589559	Skyline Chili 	Groesbeck	Groesbeck	8635 Colerain Avenue, Cincinnati, OH	(513) 385-1244
39.381648	-84.547309	Skyline Chili 	Hamilton/Erie Blvd	Hamilton/Erie Blvd	1496 S. Erie Blvd, Hamilton, OH	(513) 737-3330
39.254621	-84.796436	Skyline Chili 	Harrison	Harrison	10429 Harrison Ave., Harrison, OH	(513) 367-0614
39.197956	-84.386054	Skyline Chili 	Kenwood	Kenwood	7707 Montgomery Road, Cincinnati, OH	(513) 791-7902
39.362705	-84.265165	Skyline Chili 	Kings Mill	Kings Mill	2711 Waterpark Drive, Mason, OH	(513) 336-7009
39.313183	-84.274778	Skyline Chili 	Landen	Landen	2922 West US 22, Maineville, OH	(513) 677-8008
39.434668	-84.193053	Skyline Chili 	Lebanon	Lebanon	718 East Main St., Lebanon, OH	(513) 932-4334
39.418939	-84.470898	Skyline Chili 	Liberty-Fairfield	Liberty-Fairfield	5488 Liberty Square Drive, Liberty Township, OH	(513) 895-3929
39.294354	-84.392556	Skyline Chili 	Sharonville - Loehmann's Plaza	Sharonville - Loehmann's Plaza	12000 Lebanon Rd., Cincinnati, OH	(513) 733-0605
39.253874	-84.295353	Skyline Chili 	Loveland	Loveland	10640 Loveland-Madeira Road, Loveland, OH	(513) 683-4929
39.348055	-84.217762	Skyline Chili 	River's Bend/Maineville	River's Bend/Maineville	6016 South State Rt. 48, Maineville, OH	(513) 239-6145
39.500017	-84.356936	Skyline Chili 	Middletown	Middletown	4341 Roosevelt Blvd., Middletown, OH	(513) 423-0464
39.301395	-84.563016	Skyline Chili 	Midwest	Midwest	11929 Hamilton Ave., Cincinnati, OH	(513) 851-0630
39.176451	-84.285353	Skyline Chili 	Milford	Milford	730 Lila Avenue, Milford, OH	(513) 831-4611
39.189541	-84.600352	Skyline Chili 	Monfort Heights	Monfort Heights	5444 North Bend Road, Cincinnati, OH	(513) 662-6664
39.259157	-84.340307	Skyline Chili 	Montgomery	Montgomery	10792 Montgomery Road, Cincinnati, OH	(513) 489-4404
39.047586	-83.922358	Skyline Chili 	Mt. Orab	Mt. Orab	110 North Point Drive, Mt. Orab, OH	(937) 444-0203
39.193765	-84.240679	Skyline Chili 	Mulberry	Mulberry	1055 Route 28, Milford, OH	(513) 248-9737
39.261899	-84.603324	Skyline Chili 	Northgate	Northgate	10197 Colerain Avenue, Cincinnati, OH	(513) 385-9400
39.218274	-84.552115	Skyline Chili 	North College Hill	North College Hill	1705 W. Galbraith Road, North College Hill, OH	(513) 729-2200
39.159649	-84.454654	Skyline Chili 	Norwood	Norwood	4588 Montgomery Road, Cincinnati, OH	(513) 531-8381
39.152744	-84.430794	Skyline Chili 	Oakley	Oakley	3081 Madison Road, Cincinnati, OH	(513) 871-2930
39.514768	-84.742384	Skyline Chili 	Oxford	Oxford	One East High Street, Oxford, OH	(513) 523-3330
39.228297	-84.394165	Skyline Chili 	Plainfield Road	Plainfield Road	9254 Plainfield Road, Cincinnati, OH	(513) 793-3350
39.112714	-84.574066	Skyline Chili 	Price Hill	Price Hill	3714 Warsaw Ave., Cincinnati, OH	(513) 471-2445
39.218024	-84.44644	Skyline Chili 	Reading	Reading	8506 Reading Road, Cincinnati, OH	(513) 821-1800
39.304367	-84.485875	Skyline Chili 	Route 4	Route 4	7373 Dixie Highway, Fairfield, OH	(513) 874-6166
39.169315	-84.497656	Skyline Chili 	St. Bernard	St. Bernard	4901 Vine Street, St. Bernard, OH	(513) 242-0300
39.103923	-84.513727	Skyline Chili 	Seventh & Vine	Seventh & Vine	643 Vine Street, Cincinnati, OH	(513) 241-2020
39.269856	-84.433969	Skyline Chili 	Sharon Rd.	Sharon Rd.	2511 East Sharon Rd., Cincinnati, OH	(513) 771-6237
39.480991	-84.473795	Skyline Chili 	Trenton	Trenton	917 W. State St., Trenton, OH	(513) 988-0655
39.328621	-84.424077	Skyline Chili 	Union Center	Union Center	6098 West Chester Rd., West Chester, OH	(513) 860-5300
39.10682	-84.514478	Skyline Chili 	Vine Street	Vine Street	1001 Vine Street, Cincinnati, OH	(513) 721-4715
39.126215	-84.483644	Skyline Chili 	Walnut Hills	Walnut Hills	1216 East McMillan, Cincinnati, OH	(513) 861-7400
39.430243	-84.599751	Skyline Chili 	West Hamilton	West Hamilton	1559 Main Street, Hamilton, OH	(513) 844-6000
38.964014	-84.087385	Skyline Chili 	Bethel-West Plane	Bethel-West Plane	553 West Plane Street, Bethel, OH	(513) 734-3334
39.336472	-84.342495	Skyline Chili 	Western Row	Western Row	6645 Western Row Rd., Mason, OH	(513) 573-9003
39.04212	-84.212379	Skyline Chili 	Withamsville	Withamsville	1097 Ohio Pike, Amelia, OH	(513) 752-1233
39.245499	-84.471241	Skyline Chili 	Wyoming	Wyoming	9907 Springfield Pike, Cincinnati, OH	(513) 772-3060
41.519567	-81.473883	Skyline Chili 	Lyndhurst	Lyndhurst	5706 Mayfield Road, Lyndhurst, OH	(440) 646-1011
41.426832	-81.735635	Skyline Chili 	Ridge Park Square	Ridge Park Square	4752 Ridge Road, Brooklyn, OH	(216) 351-7632
41.180786	-81.480407	Skyline Chili 	Stow	Stow	4127 Bridgewater Parkway, Stow, OH	(330) 940-3929
40.065838	-83.072008	Skyline Chili 	Bethel Road	Bethel Road	2054 Crown Plaza Dr., Columbus, OH	(614) 459-0801
40.091189	-82.993001	Skyline Chili 	Busch Blvd.	Busch Blvd.	6111 Busch Blvd., Columbus, OH	(614) 848-3855
39.853472	-82.829086	Skyline Chili 	Canal Winchester	Canal Winchester	6290 Prentiss School Drive, Canal Winchester, OH	(614) 920-0782
39.983516	-82.815267	Skyline Chili 	East Pointe	East Pointe	7026 E. Broad St., Columbus, OH	(614) 751-8312
40.054474	-82.865435	Skyline Chili 	Gahanna	Gahanna	1350 Stone Ridge Drive, Gahanna, OH	(614) 337-9870
40.029553	-83.117412	Skyline Chili 	Hilliard	Hilliard	3693 Fishinger Blvd. , Hilliard, OH	(614) 777-8922
39.919562	-82.782093	Skyline Chili 	Pickerington	Pickerington	1530 Cross Creeks Blvd., Pickerington, OH	(614) 856-9515
40.142222	-82.965127	Skyline Chili 	Polaris Center	Polaris Center	8550 Orion Place, Columbus, OH	(614) 781-6370
40.157951	-83.02111	Skyline Chili 	Powell	Powell	9135 Owenfield Drive, Lewis Center, OH	(740) 549-0298
39.989369	-83.151101	Skyline Chili 	Hilliard-Rome	Hilliard-Rome	1790 Hilliard-Rome Road, Columbus, OH	(614) 529-1548
39.885800	-82.999202	Skyline Chili 	South High Street	South High Street	3720 South High Street, Columbus, OH	(614) 409-9275
40.109522	-82.929121	Skyline Chili 	Westerville	Westerville	117 Westerville Plaza, Westerville, OH	(614) 890-8400
39.45505	-83.781656	Skyline Chili 	Wilmington	Wilmington	2799 Rombach Ave, Wilmington, OH	(937) 382-7000
40.790095	-82.590251	Skyline Chili 	Mansfield/ Ontario	Mansfield/ Ontario	1320 North Lexington -Springmill Rd., Mansfield, OH	(419) 747-3929
39.77411	-84.049387	Skyline Chili 	Beavercreek	Beavercreek	2805 Centre Drive, Beavercreek, OH	(937) 426-3824
39.640595	-84.10655	Skyline Chili 	Bellbrook	Bellbrook	4407 St. Rt. 725, Bellbrook, OH	(937) 848-7348
39.742504	-84.182528	Skyline Chili 	Brown Street	Brown Street	1153 Brown Street, Dayton, OH	937-528-7900
39.612301	-84.160695	Skyline Chili 	Centerville	Centerville	945 S. Main St., Centerville, OH	(937) 436-7430
39.630184	-84.220058	Skyline Chili 	Dayton Mall	Dayton Mall	8906 Kingsridge Dr., Centerville, OH	(937) 434-3952
39.768123	-84.636036	Skyline Chili 	Eaton	Eaton	1704 N. Barron St., Eaton, OH	(937) 336-5537
39.860604	-84.281373	Skyline Chili 	Englewood	Englewood	1321 South Main St., Englewood, OH	(937) 832-3222
39.784763	-83.994795	Skyline Chili 	Fairborn	Fairborn	1223 Dayton-Yellow Springs Rd., Fairborn, OH	(937) 879-7125
39.865216	-84.139248	Skyline Chili 	Huber Heights	Huber Heights	7603 Old Troy Pike, Huber Heights, OH	(937) 233-6005
39.707467	-84.142402	Skyline Chili 	Kettering	Kettering	2724 Wilmington Pike, Kettering, OH	(937) 299-9061
39.847838	-84.191562	Skyline Chili 	Miller Lane	Miller Lane	6910 Miller Lane, Dayton, OH	(937) 898-9970
39.675798	-84.221259	Skyline Chili 	Moraine	Moraine	5774 Springboro Pike, Moraine, OH	(937) 293-0496
39.562973	-84.255034	Skyline Chili 	Springboro	Springboro	580 West Central Avenue, Springboro, OH	(937) 743-8810
40.055328	-84.235057	Skyline Chili 	Troy	Troy	1775 West Main Street, Troy, OH	(937) 335-7005
40.730966	-84.069296	Skyline Chili 	Lima	Lima	1990 Harding Highway, Lima, OH	(419) 991-1990
39.354459	-84.3694011	Skyline Chili 	Tylersville	Tylersville	7716 Dudley Drive, West Chester, OH	(513) 759-1710
40.123864	-83.087264	Skyline Chili 	Dublin	Dublin	7668 Sawmill Road, Dublin, OH	(614) 766-7399
39.294354	-84.392556	Skyline Chili 	Sharonville - Loehmann's Plaza	Sharonville - Loehmann's Plaza	12000 Lebanon Rd., Cincinnati, OH	(513) 733-0605
